{
  "type": "Feature",
  "properties": {
    "distance_m": 20435.9,
    "travel_time_min": 146.6,
    "free_flow_travel_time_min": 23.0,
    "traffic_delay_min": 30.9,
    "traffic_status": "HEAVY_CONGESTION",
    "max_flood_depth_m": 0.022,
    "flood_risk": "SAFE",
    "vehicle_type": "car",
    "traffic_mode": "peak_monsoon",
    "is_compromised": false,
    "advisory": null
  },
  "geometry": {
    "type": "LineString",
    "coordinates": [
      [
        88.3425545,
        22.5449558
      ],
      [
        88.34169,
        22.547478
      ],
      [
        88.341297,
        22.547305
      ],
      [
        88.340789,
        22.547064
      ],
      [
        88.340783,
        22.547004
      ],
      [
        88.34078,
        22.546983
      ],
      [
        88.340752,
        22.546508
      ],
      [
        88.340736,
        22.545973
      ],
      [
        88.340731,
        22.544987
      ],
      [
        88.340613,
        22.542417
      ],
      [
        88.340812,
        22.541673
      ],
      [
        88.34096,
        22.541293
      ],
      [
        88.341059,
        22.541166
      ],
      [
        88.341181,
        22.541064
      ],
      [
        88.341221,
        22.540999
      ],
      [
        88.341438,
        22.54106
      ],
      [
        88.341695,
        22.541118
      ],
      [
        88.342407,
        22.541274
      ],
      [
        88.342714,
        22.541351
      ],
      [
        88.343059,
        22.541422
      ],
      [
        88.343276,
        22.541465
      ],
      [
        88.343485,
        22.541508
      ],
      [
        88.343626,
        22.541522
      ],
      [
        88.343749,
        22.541537
      ],
      [
        88.343926,
        22.541553
      ],
      [
        88.344161,
        22.541568
      ],
      [
        88.344439,
        22.541585
      ],
      [
        88.3446,
        22.541608
      ],
      [
        88.344755,
        22.541624
      ],
      [
        88.344981,
        22.541655
      ],
      [
        88.345225,
        22.541681
      ],
      [
        88.345469,
        22.541707
      ],
      [
        88.345706,
        22.541731
      ],
      [
        88.345899,
        22.541749
      ],
      [
        88.346104,
        22.541744
      ],
      [
        88.346318,
        22.54174
      ],
      [
        88.346632,
        22.541718
      ],
      [
        88.347134,
        22.541691
      ],
      [
        88.347498,
        22.541663
      ],
      [
        88.347997,
        22.541629
      ],
      [
        88.348522,
        22.541598
      ],
      [
        88.348917,
        22.541575
      ],
      [
        88.349364,
        22.541553
      ],
      [
        88.349927,
        22.541534
      ],
      [
        88.350481,
        22.541515
      ],
      [
        88.351028,
        22.541485
      ],
      [
        88.351715,
        22.541449
      ],
      [
        88.352044,
        22.541425
      ],
      [
        88.35239,
        22.541404
      ],
      [
        88.352782,
        22.541381
      ],
      [
        88.353289,
        22.541354
      ],
      [
        88.353702,
        22.541335
      ],
      [
        88.35436,
        22.54128
      ],
      [
        88.35487,
        22.541249
      ],
      [
        88.355289,
        22.541229
      ],
      [
        88.356078,
        22.541192
      ],
      [
        88.356546,
        22.541165
      ],
      [
        88.35682,
        22.541149
      ],
      [
        88.357113,
        22.541131
      ],
      [
        88.357717,
        22.541097
      ],
      [
        88.357998,
        22.54109
      ],
      [
        88.358232,
        22.541084
      ],
      [
        88.358881,
        22.541061
      ],
      [
        88.359239,
        22.541055
      ],
      [
        88.359586,
        22.541047
      ],
      [
        88.360257,
        22.541023
      ],
      [
        88.360481,
        22.541024
      ],
      [
        88.360676,
        22.541036
      ],
      [
        88.360964,
        22.541067
      ],
      [
        88.361221,
        22.541118
      ],
      [
        88.361465,
        22.541183
      ],
      [
        88.361612,
        22.541232
      ],
      [
        88.361819,
        22.541306
      ],
      [
        88.362262,
        22.541484
      ],
      [
        88.362336,
        22.541515
      ],
      [
        88.362441,
        22.541662
      ],
      [
        88.362573,
        22.541719
      ],
      [
        88.362925,
        22.541872
      ],
      [
        88.363313,
        22.54205
      ],
      [
        88.363667,
        22.542222
      ],
      [
        88.364001,
        22.542381
      ],
      [
        88.364336,
        22.542538
      ],
      [
        88.364699,
        22.542722
      ],
      [
        88.365037,
        22.542888
      ],
      [
        88.365274,
        22.54299
      ],
      [
        88.36556,
        22.543114
      ],
      [
        88.365712,
        22.543154
      ],
      [
        88.365777,
        22.54317
      ],
      [
        88.365842,
        22.543179
      ],
      [
        88.365968,
        22.543186
      ],
      [
        88.366066,
        22.543183
      ],
      [
        88.366212,
        22.543169
      ],
      [
        88.366351,
        22.543142
      ],
      [
        88.366411,
        22.543126
      ],
      [
        88.366474,
        22.543108
      ],
      [
        88.366614,
        22.54305
      ],
      [
        88.366673,
        22.543004
      ],
      [
        88.366848,
        22.542877
      ],
      [
        88.366962,
        22.542791
      ],
      [
        88.367072,
        22.542691
      ],
      [
        88.367268,
        22.542519
      ],
      [
        88.367485,
        22.542256
      ],
      [
        88.367602,
        22.542079
      ],
      [
        88.367781,
        22.541744
      ],
      [
        88.368004,
        22.541256
      ],
      [
        88.368153,
        22.541022
      ],
      [
        88.368406,
        22.540824
      ],
      [
        88.368631,
        22.540723
      ],
      [
        88.368868,
        22.540637
      ],
      [
        88.369057,
        22.540561
      ],
      [
        88.369354,
        22.540399
      ],
      [
        88.369635,
        22.540303
      ],
      [
        88.369985,
        22.540167
      ],
      [
        88.370354,
        22.540033
      ],
      [
        88.370695,
        22.539928
      ],
      [
        88.371121,
        22.539801
      ],
      [
        88.371756,
        22.539675
      ],
      [
        88.372133,
        22.539608
      ],
      [
        88.372742,
        22.539437
      ],
      [
        88.372944,
        22.539395
      ],
      [
        88.373101,
        22.539376
      ],
      [
        88.373259,
        22.539367
      ],
      [
        88.373505,
        22.53935
      ],
      [
        88.373775,
        22.539323
      ],
      [
        88.37395,
        22.539308
      ],
      [
        88.374349,
        22.539269
      ],
      [
        88.374794,
        22.539204
      ],
      [
        88.374956,
        22.539192
      ],
      [
        88.375084,
        22.539183
      ],
      [
        88.37528,
        22.539207
      ],
      [
        88.375476,
        22.53923
      ],
      [
        88.375685,
        22.539264
      ],
      [
        88.375874,
        22.539274
      ],
      [
        88.376186,
        22.53925
      ],
      [
        88.376554,
        22.539203
      ],
      [
        88.376812,
        22.539181
      ],
      [
        88.377178,
        22.539146
      ],
      [
        88.377396,
        22.539125
      ],
      [
        88.37774,
        22.539112
      ],
      [
        88.378118,
        22.539121
      ],
      [
        88.378428,
        22.539162
      ],
      [
        88.378743,
        22.539216
      ],
      [
        88.379013,
        22.539284
      ],
      [
        88.379194,
        22.539333
      ],
      [
        88.37933,
        22.539383
      ],
      [
        88.379455,
        22.539429
      ],
      [
        88.379563,
        22.539479
      ],
      [
        88.380088,
        22.539705
      ],
      [
        88.380977,
        22.540103
      ],
      [
        88.382198,
        22.540649
      ],
      [
        88.382812,
        22.540924
      ],
      [
        88.383148,
        22.541076
      ],
      [
        88.383346,
        22.541162
      ],
      [
        88.383725,
        22.541326
      ],
      [
        88.384061,
        22.541451
      ],
      [
        88.384365,
        22.541552
      ],
      [
        88.384645,
        22.54163
      ],
      [
        88.384904,
        22.541699
      ],
      [
        88.385021,
        22.541729
      ],
      [
        88.38516,
        22.541758
      ],
      [
        88.3853,
        22.541777
      ],
      [
        88.385448,
        22.541792
      ],
      [
        88.385653,
        22.541812
      ],
      [
        88.385778,
        22.541814
      ],
      [
        88.385949,
        22.541815
      ],
      [
        88.386109,
        22.541806
      ],
      [
        88.386239,
        22.541793
      ],
      [
        88.386343,
        22.541774
      ],
      [
        88.386442,
        22.541756
      ],
      [
        88.386539,
        22.541736
      ],
      [
        88.386772,
        22.541679
      ],
      [
        88.386898,
        22.541649
      ],
      [
        88.387038,
        22.541626
      ],
      [
        88.387244,
        22.541585
      ],
      [
        88.387591,
        22.541537
      ],
      [
        88.387767,
        22.541524
      ],
      [
        88.387961,
        22.541515
      ],
      [
        88.388265,
        22.541504
      ],
      [
        88.388447,
        22.541509
      ],
      [
        88.388668,
        22.54151
      ],
      [
        88.389014,
        22.541563
      ],
      [
        88.38915,
        22.541584
      ],
      [
        88.389262,
        22.541604
      ],
      [
        88.389361,
        22.541623
      ],
      [
        88.390258,
        22.541834
      ],
      [
        88.391316,
        22.542089
      ],
      [
        88.39242,
        22.542346
      ],
      [
        88.393333,
        22.542541
      ],
      [
        88.393484,
        22.542578
      ],
      [
        88.393877,
        22.542678
      ],
      [
        88.394875,
        22.542911
      ],
      [
        88.39507,
        22.542956
      ],
      [
        88.395409,
        22.543035
      ],
      [
        88.395763,
        22.543109
      ],
      [
        88.395944,
        22.543139
      ],
      [
        88.396124,
        22.543155
      ],
      [
        88.396294,
        22.54317
      ],
      [
        88.396494,
        22.543166
      ],
      [
        88.396695,
        22.543142
      ],
      [
        88.396857,
        22.543116
      ],
      [
        88.396977,
        22.5431
      ],
      [
        88.397113,
        22.543072
      ],
      [
        88.397302,
        22.54303
      ],
      [
        88.39755,
        22.542969
      ],
      [
        88.397706,
        22.542943
      ],
      [
        88.397802,
        22.542935
      ],
      [
        88.397945,
        22.542928
      ],
      [
        88.398059,
        22.542942
      ],
      [
        88.398159,
        22.542963
      ],
      [
        88.398235,
        22.542987
      ],
      [
        88.398308,
        22.543018
      ],
      [
        88.39843,
        22.543086
      ],
      [
        88.398503,
        22.543146
      ],
      [
        88.398577,
        22.543229
      ],
      [
        88.39864,
        22.543327
      ],
      [
        88.398714,
        22.543492
      ],
      [
        88.398754,
        22.543622
      ],
      [
        88.398888,
        22.544157
      ],
      [
        88.399111,
        22.545065
      ],
      [
        88.399285,
        22.54586
      ],
      [
        88.399458,
        22.546538
      ],
      [
        88.399558,
        22.546877
      ],
      [
        88.399622,
        22.547076
      ],
      [
        88.399686,
        22.547248
      ],
      [
        88.399786,
        22.547461
      ],
      [
        88.400039,
        22.547878
      ],
      [
        88.40016,
        22.548046
      ],
      [
        88.400262,
        22.548177
      ],
      [
        88.400398,
        22.548337
      ],
      [
        88.400621,
        22.548564
      ],
      [
        88.401133,
        22.548981
      ],
      [
        88.402158,
        22.549789
      ],
      [
        88.402576,
        22.55014
      ],
      [
        88.402734,
        22.550284
      ],
      [
        88.402948,
        22.550521
      ],
      [
        88.403222,
        22.55074
      ],
      [
        88.403469,
        22.550928
      ],
      [
        88.403632,
        22.551047
      ],
      [
        88.40395,
        22.55125
      ],
      [
        88.404136,
        22.551379
      ],
      [
        88.404364,
        22.551528
      ],
      [
        88.404528,
        22.551631
      ],
      [
        88.40466,
        22.551719
      ],
      [
        88.405125,
        22.552029
      ],
      [
        88.405199,
        22.552079
      ],
      [
        88.405288,
        22.552135
      ],
      [
        88.405371,
        22.552188
      ],
      [
        88.405437,
        22.552226
      ],
      [
        88.405506,
        22.552262
      ],
      [
        88.405581,
        22.552297
      ],
      [
        88.40565,
        22.552326
      ],
      [
        88.405727,
        22.55235
      ],
      [
        88.405796,
        22.552367
      ],
      [
        88.405884,
        22.552383
      ],
      [
        88.405967,
        22.552398
      ],
      [
        88.406088,
        22.55241
      ],
      [
        88.406206,
        22.552424
      ],
      [
        88.406273,
        22.552426
      ],
      [
        88.406462,
        22.552442
      ],
      [
        88.406953,
        22.552493
      ],
      [
        88.407335,
        22.552536
      ],
      [
        88.407613,
        22.552575
      ],
      [
        88.407803,
        22.55261
      ],
      [
        88.408023,
        22.55266
      ],
      [
        88.408284,
        22.552736
      ],
      [
        88.408523,
        22.552812
      ],
      [
        88.408643,
        22.552854
      ],
      [
        88.40877,
        22.552908
      ],
      [
        88.40891,
        22.552972
      ],
      [
        88.408981,
        22.553008
      ],
      [
        88.409062,
        22.553058
      ],
      [
        88.409212,
        22.553147
      ],
      [
        88.409367,
        22.553238
      ],
      [
        88.40961,
        22.553397
      ],
      [
        88.409841,
        22.553566
      ],
      [
        88.409987,
        22.553679
      ],
      [
        88.410153,
        22.55382
      ],
      [
        88.4104,
        22.554045
      ],
      [
        88.410636,
        22.554256
      ],
      [
        88.410713,
        22.554326
      ],
      [
        88.411121,
        22.554681
      ],
      [
        88.411385,
        22.554917
      ],
      [
        88.411476,
        22.555005
      ],
      [
        88.411543,
        22.555162
      ],
      [
        88.411625,
        22.55527
      ],
      [
        88.411708,
        22.555412
      ],
      [
        88.411775,
        22.555542
      ],
      [
        88.411842,
        22.555669
      ],
      [
        88.411898,
        22.555818
      ],
      [
        88.411962,
        22.556102
      ],
      [
        88.412062,
        22.55652
      ],
      [
        88.412083,
        22.55666
      ],
      [
        88.412085,
        22.55677
      ],
      [
        88.412077,
        22.556855
      ],
      [
        88.41206,
        22.556929
      ],
      [
        88.412018,
        22.557043
      ],
      [
        88.411973,
        22.557149
      ],
      [
        88.411933,
        22.557247
      ],
      [
        88.411895,
        22.557353
      ],
      [
        88.411867,
        22.55745
      ],
      [
        88.411848,
        22.557547
      ],
      [
        88.411839,
        22.557636
      ],
      [
        88.411842,
        22.557707
      ],
      [
        88.411853,
        22.55777
      ],
      [
        88.411873,
        22.557838
      ],
      [
        88.411902,
        22.557901
      ],
      [
        88.41194,
        22.557954
      ],
      [
        88.412047,
        22.558064
      ],
      [
        88.412134,
        22.558119
      ],
      [
        88.412237,
        22.55816
      ],
      [
        88.412345,
        22.558191
      ],
      [
        88.412465,
        22.558218
      ],
      [
        88.412605,
        22.558249
      ],
      [
        88.412753,
        22.558288
      ],
      [
        88.412876,
        22.558334
      ],
      [
        88.412975,
        22.558382
      ],
      [
        88.41305,
        22.55843
      ],
      [
        88.413127,
        22.558498
      ],
      [
        88.413184,
        22.558564
      ],
      [
        88.413263,
        22.55868
      ],
      [
        88.413322,
        22.558781
      ],
      [
        88.413407,
        22.55896
      ],
      [
        88.413483,
        22.559108
      ],
      [
        88.413539,
        22.559202
      ],
      [
        88.413599,
        22.559297
      ],
      [
        88.413657,
        22.559379
      ],
      [
        88.413797,
        22.559566
      ],
      [
        88.41386,
        22.559652
      ],
      [
        88.413911,
        22.559726
      ],
      [
        88.413963,
        22.5598
      ],
      [
        88.414311,
        22.560472
      ],
      [
        88.414508,
        22.560848
      ],
      [
        88.414619,
        22.56106
      ],
      [
        88.414764,
        22.561337
      ],
      [
        88.414825,
        22.561453
      ],
      [
        88.414966,
        22.561725
      ],
      [
        88.415104,
        22.561989
      ],
      [
        88.415301,
        22.562367
      ],
      [
        88.415495,
        22.562735
      ],
      [
        88.415509,
        22.562761
      ],
      [
        88.415638,
        22.562999
      ],
      [
        88.415791,
        22.563284
      ],
      [
        88.415856,
        22.563406
      ],
      [
        88.415943,
        22.563569
      ],
      [
        88.416096,
        22.563854
      ],
      [
        88.416248,
        22.564139
      ],
      [
        88.416401,
        22.564424
      ],
      [
        88.416587,
        22.564787
      ],
      [
        88.416761,
        22.565115
      ],
      [
        88.417056,
        22.565674
      ],
      [
        88.417277,
        22.566087
      ],
      [
        88.417521,
        22.566544
      ],
      [
        88.417822,
        22.567118
      ],
      [
        88.418137,
        22.567723
      ],
      [
        88.418466,
        22.56834
      ],
      [
        88.418709,
        22.568804
      ],
      [
        88.419001,
        22.569356
      ],
      [
        88.419328,
        22.569981
      ],
      [
        88.419601,
        22.570503
      ],
      [
        88.419801,
        22.57088
      ],
      [
        88.419982,
        22.571221
      ],
      [
        88.420247,
        22.571711
      ],
      [
        88.4207,
        22.572549
      ],
      [
        88.420831,
        22.572804
      ],
      [
        88.420916,
        22.572975
      ],
      [
        88.42097,
        22.573076
      ],
      [
        88.421071,
        22.573276
      ],
      [
        88.421525,
        22.57415
      ],
      [
        88.421731,
        22.57455
      ],
      [
        88.421808,
        22.574698
      ],
      [
        88.421981,
        22.575023
      ],
      [
        88.422077,
        22.575213
      ],
      [
        88.422328,
        22.575687
      ],
      [
        88.422556,
        22.576122
      ],
      [
        88.422627,
        22.576253
      ],
      [
        88.422893,
        22.57678
      ],
      [
        88.422946,
        22.576882
      ],
      [
        88.422977,
        22.57694
      ],
      [
        88.423011,
        22.576992
      ],
      [
        88.423049,
        22.577048
      ],
      [
        88.423096,
        22.57711
      ],
      [
        88.423147,
        22.577171
      ],
      [
        88.423214,
        22.577239
      ],
      [
        88.423283,
        22.577309
      ],
      [
        88.423381,
        22.577386
      ],
      [
        88.423531,
        22.577452
      ],
      [
        88.42358,
        22.577476
      ],
      [
        88.425635,
        22.578676
      ],
      [
        88.426883,
        22.579413
      ],
      [
        88.428047,
        22.580094
      ],
      [
        88.429045,
        22.580731
      ],
      [
        88.429199,
        22.580823
      ],
      [
        88.429721,
        22.581209
      ],
      [
        88.430946,
        22.581948
      ],
      [
        88.431098,
        22.582034
      ],
      [
        88.431201,
        22.582092
      ],
      [
        88.432216,
        22.582698
      ],
      [
        88.432451,
        22.582835
      ],
      [
        88.432646,
        22.582947
      ],
      [
        88.432947,
        22.583118
      ],
      [
        88.433079,
        22.583136
      ],
      [
        88.433164,
        22.583138
      ],
      [
        88.433231,
        22.583103
      ],
      [
        88.433263,
        22.583066
      ],
      [
        88.433288,
        22.583011
      ],
      [
        88.433371,
        22.58289
      ],
      [
        88.433431,
        22.582801
      ],
      [
        88.433486,
        22.582736
      ],
      [
        88.433515,
        22.582703
      ],
      [
        88.433561,
        22.582657
      ],
      [
        88.433624,
        22.582606
      ],
      [
        88.433666,
        22.582581
      ],
      [
        88.43375,
        22.582532
      ],
      [
        88.433904,
        22.582462
      ],
      [
        88.434321,
        22.582271
      ],
      [
        88.434397,
        22.582237
      ],
      [
        88.434423,
        22.582224
      ],
      [
        88.434825,
        22.58204
      ],
      [
        88.435802,
        22.581604
      ],
      [
        88.435814,
        22.581599
      ],
      [
        88.43587,
        22.581574
      ],
      [
        88.436021,
        22.581507
      ],
      [
        88.436809,
        22.581134
      ],
      [
        88.436999,
        22.581051
      ],
      [
        88.437095,
        22.581009
      ],
      [
        88.437252,
        22.58094
      ],
      [
        88.437409,
        22.580871
      ],
      [
        88.437525,
        22.580821
      ],
      [
        88.437603,
        22.580787
      ],
      [
        88.437721,
        22.58073
      ],
      [
        88.437773,
        22.580698
      ],
      [
        88.437823,
        22.580658
      ],
      [
        88.437872,
        22.580613
      ],
      [
        88.437934,
        22.580547
      ],
      [
        88.437985,
        22.58049
      ],
      [
        88.438056,
        22.580427
      ],
      [
        88.438086,
        22.580406
      ],
      [
        88.438131,
        22.580384
      ],
      [
        88.438179,
        22.580369
      ],
      [
        88.438232,
        22.580357
      ],
      [
        88.438279,
        22.580353
      ],
      [
        88.438361,
        22.580365
      ],
      [
        88.438508,
        22.580404
      ],
      [
        88.438575,
        22.580421
      ],
      [
        88.438643,
        22.580435
      ],
      [
        88.438717,
        22.580442
      ],
      [
        88.438784,
        22.580435
      ],
      [
        88.438869,
        22.580418
      ],
      [
        88.438971,
        22.580394
      ],
      [
        88.439482,
        22.580282
      ],
      [
        88.439585,
        22.580265
      ],
      [
        88.439698,
        22.580252
      ],
      [
        88.439818,
        22.580244
      ],
      [
        88.440176,
        22.580234
      ],
      [
        88.44052,
        22.580229
      ],
      [
        88.441166,
        22.580212
      ],
      [
        88.441622,
        22.580222
      ],
      [
        88.441749,
        22.580225
      ],
      [
        88.442065,
        22.580237
      ],
      [
        88.442288,
        22.580258
      ],
      [
        88.442453,
        22.580276
      ],
      [
        88.442558,
        22.580297
      ],
      [
        88.442665,
        22.580326
      ],
      [
        88.442761,
        22.580364
      ],
      [
        88.443191,
        22.580568
      ],
      [
        88.443599,
        22.580761
      ],
      [
        88.443715,
        22.580814
      ],
      [
        88.44384,
        22.580862
      ],
      [
        88.443987,
        22.580902
      ],
      [
        88.44413,
        22.580929
      ],
      [
        88.444277,
        22.580945
      ],
      [
        88.444462,
        22.580964
      ],
      [
        88.444687,
        22.580984
      ],
      [
        88.445077,
        22.581021
      ],
      [
        88.445427,
        22.581048
      ],
      [
        88.44571,
        22.581073
      ],
      [
        88.445875,
        22.581087
      ],
      [
        88.446099,
        22.581106
      ],
      [
        88.446894,
        22.581192
      ],
      [
        88.447148,
        22.58122
      ],
      [
        88.447495,
        22.58125
      ],
      [
        88.448049,
        22.581299
      ],
      [
        88.448621,
        22.581351
      ],
      [
        88.449115,
        22.581388
      ],
      [
        88.449654,
        22.581448
      ],
      [
        88.450035,
        22.581492
      ],
      [
        88.450467,
        22.581549
      ],
      [
        88.451159,
        22.581651
      ],
      [
        88.451682,
        22.581725
      ],
      [
        88.452219,
        22.581798
      ],
      [
        88.452605,
        22.581832
      ],
      [
        88.452971,
        22.581852
      ],
      [
        88.453251,
        22.581853
      ],
      [
        88.453357,
        22.581851
      ],
      [
        88.453989,
        22.581826
      ],
      [
        88.454342,
        22.581796
      ],
      [
        88.454993,
        22.581678
      ],
      [
        88.456404,
        22.58142
      ],
      [
        88.456679,
        22.58137
      ],
      [
        88.457461,
        22.581217
      ],
      [
        88.458859,
        22.580976
      ],
      [
        88.459331,
        22.580909
      ],
      [
        88.461763,
        22.580514
      ],
      [
        88.461832,
        22.580502
      ],
      [
        88.4628,
        22.580328
      ],
      [
        88.46294,
        22.580304
      ],
      [
        88.463856,
        22.58014
      ],
      [
        88.465252,
        22.579896
      ],
      [
        88.466602,
        22.57966
      ],
      [
        88.467641,
        22.579478
      ],
      [
        88.469476,
        22.57916
      ],
      [
        88.470384,
        22.57902
      ],
      [
        88.470492,
        22.579007
      ],
      [
        88.470739,
        22.578968
      ],
      [
        88.470994,
        22.578935
      ],
      [
        88.471502,
        22.578817
      ],
      [
        88.471722,
        22.578769
      ],
      [
        88.471787,
        22.579062
      ],
      [
        88.471811,
        22.57917
      ],
      [
        88.471835,
        22.579299
      ],
      [
        88.472028,
        22.579693
      ],
      [
        88.472409,
        22.580605
      ],
      [
        88.472817,
        22.581657
      ],
      [
        88.472849,
        22.581749
      ],
      [
        88.473184,
        22.582426
      ],
      [
        88.47333,
        22.582799
      ],
      [
        88.473374,
        22.58293
      ],
      [
        88.473435,
        22.583113
      ],
      [
        88.473538,
        22.583384
      ],
      [
        88.473568,
        22.583467
      ],
      [
        88.473588,
        22.583522
      ],
      [
        88.473615,
        22.583596
      ],
      [
        88.473821,
        22.584114
      ],
      [
        88.473936,
        22.584399
      ],
      [
        88.474496,
        22.585839
      ],
      [
        88.474643,
        22.58622
      ],
      [
        88.474802,
        22.586644
      ],
      [
        88.474849,
        22.586817
      ],
      [
        88.47489,
        22.587057
      ],
      [
        88.474919,
        22.587259
      ],
      [
        88.47492,
        22.587265
      ],
      [
        88.474933,
        22.587353
      ],
      [
        88.474934,
        22.587357
      ],
      [
        88.474945,
        22.587427
      ],
      [
        88.474964,
        22.587698
      ],
      [
        88.474959,
        22.588129
      ],
      [
        88.474948,
        22.58835
      ],
      [
        88.474905,
        22.588635
      ],
      [
        88.474826,
        22.588957
      ],
      [
        88.474733,
        22.589226
      ],
      [
        88.474475,
        22.589927
      ],
      [
        88.4742,
        22.590741
      ],
      [
        88.474167,
        22.590826
      ],
      [
        88.474143,
        22.59089
      ],
      [
        88.473778,
        22.591873
      ],
      [
        88.473376,
        22.59298
      ],
      [
        88.473317,
        22.593178
      ],
      [
        88.473574,
        22.59326
      ],
      [
        88.473661,
        22.593299
      ],
      [
        88.473446,
        22.593949
      ],
      [
        88.473158,
        22.594823
      ],
      [
        88.472833,
        22.595665
      ],
      [
        88.47264,
        22.596274
      ],
      [
        88.472388,
        22.59701
      ],
      [
        88.47196,
        22.598218
      ],
      [
        88.47164,
        22.599181
      ],
      [
        88.471386,
        22.599898
      ],
      [
        88.47138,
        22.599917
      ],
      [
        88.471171,
        22.600511
      ],
      [
        88.470792,
        22.601658
      ],
      [
        88.4722454,
        22.5994556
      ]
    ]
  }
}