{
  "type": "Feature",
  "properties": {
    "distance_m": 2371.0,
    "travel_time_min": 9.1,
    "max_flood_depth_m": 0.4,
    "flood_risk": "ELEVATED",
    "vehicle_type": "truck"
  },
  "geometry": {
    "type": "LineString",
    "coordinates": [
      [
        72.854791,
        19.066954
      ],
      [
        72.854947,
        19.066834
      ],
      [
        72.854969,
        19.066817
      ],
      [
        72.855077,
        19.066747
      ],
      [
        72.855157,
        19.066708
      ],
      [
        72.855258,
        19.066674
      ],
      [
        72.855367,
        19.066645
      ],
      [
        72.855499,
        19.066627
      ],
      [
        72.856016,
        19.066573
      ],
      [
        72.8561,
        19.06656
      ],
      [
        72.856284,
        19.066531
      ],
      [
        72.856323,
        19.066525
      ],
      [
        72.856489,
        19.066487
      ],
      [
        72.856618,
        19.066462
      ],
      [
        72.857178,
        19.066354
      ],
      [
        72.85754,
        19.066296
      ],
      [
        72.859509,
        19.066049
      ],
      [
        72.860022,
        19.065985
      ],
      [
        72.860457,
        19.066975
      ],
      [
        72.860535,
        19.067194
      ],
      [
        72.860656,
        19.067531
      ],
      [
        72.86073,
        19.067799
      ],
      [
        72.860789,
        19.068015
      ],
      [
        72.860877,
        19.068498
      ],
      [
        72.861052,
        19.069774
      ],
      [
        72.861182,
        19.070617
      ],
      [
        72.861346,
        19.071502
      ],
      [
        72.861349,
        19.071696
      ],
      [
        72.861153,
        19.071986
      ],
      [
        72.860924,
        19.072681
      ],
      [
        72.86086,
        19.072874
      ],
      [
        72.861094,
        19.072914
      ],
      [
        72.861918,
        19.073108
      ],
      [
        72.862289,
        19.072967
      ],
      [
        72.862706,
        19.072844
      ],
      [
        72.862971,
        19.072603
      ],
      [
        72.862995,
        19.072552
      ],
      [
        72.86307,
        19.072355
      ],
      [
        72.863093,
        19.07223
      ],
      [
        72.863101,
        19.072184
      ],
      [
        72.863138,
        19.071957
      ],
      [
        72.863122,
        19.071847
      ],
      [
        72.863026,
        19.071522
      ],
      [
        72.863001,
        19.071379
      ],
      [
        72.863005,
        19.071216
      ],
      [
        72.863073,
        19.071216
      ],
      [
        72.863247,
        19.071248
      ],
      [
        72.863495,
        19.071304
      ],
      [
        72.863975,
        19.071512
      ],
      [
        72.864325,
        19.071665
      ],
      [
        72.864744,
        19.071848
      ],
      [
        72.865591,
        19.072219
      ],
      [
        72.866657,
        19.072775
      ],
      [
        72.866469,
        19.073157
      ],
      [
        72.866433,
        19.07323
      ],
      [
        72.866355,
        19.073389
      ],
      [
        72.866331,
        19.073429
      ],
      [
        72.866145,
        19.073755
      ],
      [
        72.865981,
        19.074328
      ]
    ]
  }
}