{
  "type": "FeatureCollection",
  "generator": "overpass-turbo",
  "copyright": "The data included in this document is from www.openstreetmap.org. The data is made available under ODbL.",
  "timestamp": "2026-09-02T13:15:38Z",
  "features": [
    {
      "type": "Feature",
      "properties": {
        "@id": "way/49055889",
        "waterway": "drain"
      },
      "geometry": {
        "type": "LineString",
        "coordinates": [
          [
            72.8494795,
            19.0799136
          ],
          [
            72.8494124,
            19.0796753
          ],
          [
            72.8492327,
            19.0793077
          ],
          [
            72.8488304,
            19.0783445
          ],
          [
            72.8484673,
            19.0774558
          ],
          [
            72.8479096,
            19.0768405
          ],
          [
            72.8475663,
            19.0766512
          ],
          [
            72.8474735,
            19.0762456
          ],
          [
            72.8478888,
            19.0746842
          ],
          [
            72.8481608,
            19.0740623
          ],
          [
            72.848447,
            19.0737649
          ],
          [
            72.8493316,
            19.0731615
          ],
          [
            72.8497501,
            19.0726481
          ],
          [
            72.8516551,
            19.0689298
          ],
          [
            72.852148,
            19.0679937
          ],
          [
            72.8523309,
            19.0676464
          ],
          [
            72.852361,
            19.0675828
          ],
          [
            72.8523668,
            19.06757
          ],
          [
            72.8530759,
            19.0662225
          ],
          [
            72.8541352,
            19.0653553
          ],
          [
            72.857573,
            19.0595016
          ],
          [
            72.8575945,
            19.058883
          ],
          [
            72.857219,
            19.0582543
          ],
          [
            72.857101,
            19.0573112
          ]
        ]
      },
      "id": "way/49055889"
    },
    {
      "type": "Feature",
      "properties": {
        "@id": "way/49682805",
        "waterway": "drain"
      },
      "geometry": {
        "type": "LineString",
        "coordinates": [
          [
            72.8632762,
            19.0689775
          ],
          [
            72.8635659,
            19.0690806
          ],
          [
            72.8636423,
            19.0692124
          ],
          [
            72.8637639,
            19.069629
          ],
          [
            72.8641714,
            19.0697654
          ],
          [
            72.8646817,
            19.0701994
          ],
          [
            72.8659166,
            19.0708071
          ],
          [
            72.8677522,
            19.0713039
          ],
          [
            72.8679533,
            19.0712381
          ]
        ]
      },
      "id": "way/49682805"
    },
    {
      "type": "Feature",
      "properties": {
        "@id": "way/286258582",
        "waterway": "canal"
      },
      "geometry": {
        "type": "LineString",
        "coordinates": [
          [
            72.8525604,
            19.0737352
          ],
          [
            72.8523152,
            19.073677
          ],
          [
            72.8519443,
            19.0736077
          ],
          [
            72.8516326,
            19.0735721
          ],
          [
            72.8513271,
            19.073555
          ],
          [
            72.8505289,
            19.0736059
          ],
          [
            72.8497195,
            19.0737586
          ],
          [
            72.8496564,
            19.0737573
          ],
          [
            72.8496094,
            19.0737242
          ],
          [
            72.8495853,
            19.0736773
          ],
          [
            72.8495879,
            19.0735975
          ],
          [
            72.8496089,
            19.0733913
          ],
          [
            72.8496185,
            19.0732897
          ],
          [
            72.8496297,
            19.0731958
          ],
          [
            72.8496963,
            19.0729537
          ],
          [
            72.8497501,
            19.0726481
          ]
        ]
      },
      "id": "way/286258582"
    },
    {
      "type": "Feature",
      "properties": {
        "@id": "way/430418397",
        "layer": "-1",
        "tunnel": "yes",
        "waterway": "drain"
      },
      "geometry": {
        "type": "LineString",
        "coordinates": [
          [
            72.8679533,
            19.0712381
          ],
          [
            72.8684697,
            19.0709282
          ],
          [
            72.8706333,
            19.0720681
          ],
          [
            72.8714023,
            19.0722748
          ]
        ]
      },
      "id": "way/430418397"
    }
  ]
}